15P/Finlay,e,6.7884,13.7478,347.8701,3.510710,0.1498344,0.71621024,200.9194,03/15.0/2025,2000,g 12.0,4.0
# From MPEC 2022-X67
16P/Brooks,e,3.0100,138.8302,245.3708,3.661810,0.1406567,0.48573925,200.6682,03/15.0/2025,2000,g  7.5,10.0
# From MPEC 2023-J29
17P/Holmes,e,19.0080,326.6118,24.6213,3.641213,0.1418519,0.42641658,210.6758,03/15.0/2025,2000,g 10.0,6.0
# From  19, 80
18D/Perrine-Mrkos,e,17.658,158.454,238.225,3.88229,0.128846,0.5895940,25.488,03/15.0/2025,2000,g  9.0,4.0
# From MPEC 2024-YC7
19P/Borrelly,e,29.3171,74.2145,352.0031,3.608297,0.1437973,0.63783086,163.4540,03/15.0/2025,2000,g  4.5,10.0
# From MPEC 2024-YC7
21P/Giacobini-Zinner,e,32.0505,195.3317,172.9341,3.491422,0.1510778,0.71101881,358.4351,03/15.0/2025,2000,g  9.0,6.0
# From MPEC 2024-L77
22P/Kopff,e,4.7931,120.3121,162.9215,3.419454,0.1558723,0.55545917,169.9148,03/15.0/2025,2000,g  3.0,10.4
# From MPC 14747
23P/Brorsen-Metcalf,e,19.4512,311.2339,129.9292,16.93914,0.0141373,0.97260059,0.0000,05/28.4237/2059,2000,g 10.0,6.0
# From MPC110085
24P/Schaumasse,e,11.5062,78.3684,58.4028,4.056474,0.1206371,0.70815997,323.8921,03/15.0/2025,2000,g  6.5,14.0
# From NK 378
25D/Neujmin 2,e,2.8087,279.9738,244.7918,3.221813,0.1704330,0.55046262,350.2155,03/15.0/2025,2000,g 12.5,6.0
# From MPEC 2024-TP3
26P/Grigg-Skjellerup,e,22.4353,211.5339,2.1270,3.014760,0.1882890,0.64058327,83.9168,03/15.0/2025,2000,g 12.0,16.0
# From MPC 78188
27P/Crommelin,e,29.4407,250.7085,195.8411,9.179049,0.0354411,0.91964757,176.2868,03/15.0/2025,2000,g 12.0,8.0
# From MPEC 2025-A40
28P/Neujmin,e,14.2946,346.4059,347.4592,6.981677,0.0534275,0.77276340,78.2977,03/15.0/2025,2000,g  8.5,6.0
# From MPEC 2025-EG2
29P/Schwassmann-Wachmann,e,9.3561,312.4043,52.1816,6.056473,0.0661263,0.04340925,141.6596,03/15.0/2025,2000,g  4.0,4.0
# From MPEC 2025-EG2
30P/Reinmuth,e,8.0532,117.2341,9.5040,3.734923,0.1365468,0.51437564,28.6455,03/15.0/2025,2000,g  9.5,6.0
# From MPEC 2025-A40
31P/Schwassmann-Wachmann,e,4.5498,114.1140,17.8832,4.231429,0.1132331,0.19334596,235.4708,03/15.0/2025,2000,g  5.0,8.0
# From MPEC 2025-EG2
32P/ComasSola,e,9.9204,54.5314,54.6966,4.553486,0.1014351,0.55529890,33.3043,03/15.0/2025,2000,g  6.5,8.0
# From MPEC 2025-EG2
33P/Daniel,e,22.2941,66.2814,20.2665,4.092989,0.1190264,0.45210278,14.7679,03/15.0/2025,2000,g 10.0,12.0
# From  9, 314
34D/Gale,e,10.5826,57.8661,218.0269,5.016999,0.0877078,0.75798883,313.6657,03/15.0/2025,2000,g  9.0,4.0
# From  15, 452
35P/Herschel-Rigollet,e,64.635,356.251,29.189,28.5378,0.006465,0.9743418,0.000,04/07.4020/2092,2000,g  9.0,4.0
# From MPEC 2023-RF3
36P/Whipple,e,9.9467,181.8305,201.2040,4.140863,0.1169682,0.26825749,204.3389,03/15.0/2025,2000,g  8.5,6.0
# From MPEC 2025-D44
37P/Forbes,e,8.9479,314.5497,330.0592,3.461878,0.1530159,0.53268434,23.6808,03/15.0/2025,2000,g 10.5,4.8
# From MPEC 2024-YC7
38P/Stephan-Oterma,e,18.4159,77.8590,359.5828,11.26201,0.0260784,0.85980830,60.3251,03/15.0/2025,2000,g  3.5,12.0
# From MPEC 2024-AF0
39P/Oterma,e,1.7035,289.4385,113.9020,6.977060,0.0534805,0.17621498,30.1387,03/15.0/2025,2000,g  7.0,6.0
# From MPEC 2025-EB9
40P/Vaisala,e,11.6360,128.9108,52.0126,4.952268,0.0894330,0.63170766,338.3658,03/15.0/2025,2000,g  5.5,12.0
# From MPEC 2023-SQ0
41P/Tuttle-Giacobini-Kresak,e,9.2163,140.9727,62.2202,3.087874,0.1816414,0.65959736,165.9584,03/15.0/2025,2000,g 10.0,16.0
# From MPC 94283
42P/Neujmin,e,3.9882,150.1516,147.1487,4.878712,0.0914632,0.58403546,332.0139,03/15.0/2025,2000,g 13.0,6.0
# From MPEC 2025-EG2
43P/Wolf-Harrington,e,9.3334,243.9962,223.8466,4.332385,0.1092983,0.43619913,344.3887,03/15.0/2025,2000,g  8.0,6.0
# From MPEC 2024-F34
44P/Reinmuth,e,5.8959,286.4218,58.0051,3.687842,0.1391700,0.42676414,147.2096,03/15.0/2025,2000,g  8.3,6.0
# From MPEC 2022-O01
45P/Honda-Mrkos-Pajdusakova,e,4.3242,87.6853,327.9499,3.056763,0.1844214,0.81766156,194.1287,03/15.0/2025,2000,g 13.5,8.0
# From MPEC 2024-F91
46P/Wirtanen,e,11.7498,82.1610,356.3361,3.091796,0.1812958,0.65874888,54.3704,03/15.0/2025,2000,g 14.0,6.0
# From MPEC 2024-PC5
47P/Ashbrook-Jackson,e,13.0381,356.8844,357.9063,4.118057,0.1179412,0.31825484,333.2318,03/15.0/2025,2000,g  1.0,11.2
# From MPEC 2024-UA9
48P/Johnson,e,12.2018,110.0643,216.7756,3.499284,0.1505689,0.42657673,1.8602,03/15.0/2025,2000,g 10.0,6.0
# From MPEC 2025-EG2
49P/Arend-Rigaux,e,19.0589,118.7919,332.9342,3.570153,0.1461080,0.59907913,356.1109,03/15.0/2025,2000,g 11.3,4.4
# From MPEC 2025-EG2
50P/Arend,e,19.0997,355.1462,49.3224,4.087430,0.1192693,0.52977328,36.5360,03/15.0/2025,2000,g  9.5,6.0
# From MPEC 2023-J29
51P/Harrington,e,5.4263,83.6580,269.2408,3.705459,0.1381787,0.54282524,123.8370,03/15.0/2025,2000,g 10.0,8.0
# From NK 3014
51P-A/Harrington,e,5.4262,269.2293,83.6497,3.706706,0.1381089,0.54301777,123.4182,03/15.0/2025,2000,g 10.0,8.0
# From MPEC 2023-J29
51P-D/Harrington,e,5.4268,83.6463,269.2590,3.705812,0.1381590,0.54295526,123.7608,03/15.0/2025,2000,g 16.0,8.0
# From MPEC 2023-XP6
52P/Harrington-Abell,e,10.2369,336.7596,139.6051,3.862146,0.1298557,0.54106182,163.0842,03/15.0/2025,2000,g 13.5,6.0
# From MPEC 2023-TM6
53P/VanBiesbroeck,e,6.6023,148.8525,134.3504,5.438869,0.0777036,0.54955331,252.5761,03/15.0/2025,2000,g  7.7,4.8
# From MPEC 2024-YC7
54P/deVico-Swift-NEAT,e,6.0629,358.7847,2.0256,3.788417,0.1336649,0.42667608,25.6592,03/15.0/2025,2000,g 10.0,6.0
# From MPC 31070
55P/Tempel-Tuttle,e,162.4889,235.4141,172.4867,10.33925,0.0296463,0.90568559,293.0129,03/15.0/2025,2000,g  9.0,4.0
# From MPEC 2023-TM6
56P/Slaughter-Burnham,e,8.1549,345.8964,44.2121,5.063284,0.0865079,0.50842327,272.6819,03/15.0/2025,2000,g  8.5,6.0
# From MPEC 2024-DC6
57P/duToit-Neujmin-Delporte,e,2.8528,188.7541,115.0552,3.441318,0.1543892,0.50107503,192.3087,03/15.0/2025,2000,g 12.5,6.0
# From MPEC 2024-A43
58P/Jackson-Neujmin,e,13.0894,159.0446,200.5827,4.090882,0.1191183,0.66176898,208.8121,03/15.0/2025,2000,g 15.5,6.0
# From MPEC 2023-A50
59P/Kearns-Kwee,e,9.3551,312.7304,127.6581,4.479422,0.1039612,0.47703350,246.0183,03/15.0/2025,2000,g  7.0,6.0
# From MPEC 2025-DP4
60P/Tsuchinshan,e,3.5798,267.3967,216.9286,3.530365,0.1485849,0.53387660,341.0359,03/15.0/2025,2000,g 11.5,6.0
# From MPEC 2024-JU4
61P/Shajn-Schaldach,e,5.9973,162.9626,221.7047,3.690344,0.1390285,0.42317135,121.4387,03/15.0/2025,2000,g  6.0,10.0
# From MPEC 2025-EG2
62P/Tsuchinshan,e,4.7372,68.6662,47.3254,3.370831,0.1592570,0.62470305,70.9998,03/15.0/2025,2000,g  8.0,10.0
# From MPC 84320
63P/Wild,e,19.6248,357.7935,168.8075,5.647420,0.0734394,0.65070779,324.8712,03/15.0/2025,2000,g 10.5,6.0
# From MPEC 2024-A43
64P/Swift-Gehrels,e,8.9535,299.7779,97.3305,4.452154,0.1049177,0.68851487,243.3417,03/15.0/2025,2000,g  9.5,12.0
# From MPEC 2025-EG2
65P/Gunn,e,9.1756,61.9765,213.6851,3.891908,0.1283690,0.24812429,347.9941,03/15.0/2025,2000,g  5.0,6.0
# From MPEC 2021-F20
66P/duToit,e,18.6445,21.8309,257.4005,6.070562,0.0658962,0.78497394,164.5849,03/15.0/2025,2000,g 15.0,4.0
# From MPEC 2024-C04
67P/Churyumov-Gerasimenko,e,3.8690,36.3186,22.2043,3.458511,0.1532393,0.64989960,188.2242,03/15.0/2025,2000,g 11.0,4.0
# From MPEC 2023-HD1
68P/Klemola,e,11.1006,175.0882,153.2333,4.963342,0.0891339,0.63585254,174.2941,03/15.0/2025,2000,g 12.6,4.0
# From MPEC 2024-C04
69P/Taylor,e,22.0615,104.8085,343.4844,3.880772,0.1289219,0.41468698,281.7034,03/15.0/2025,2000,g  9.5,12.0
# From MPEC 2023-VM5
70P/Kojima,e,6.6027,119.2353,1.7870,3.675537,0.1398694,0.45474925,171.6222,03/15.0/2025,2000,g 11.0,6.0
# From MPEC 2024-YC7
71P/Clark,e,9.3523,59.3364,210.1510,3.168469,0.1747551,0.48951669,136.6966,03/15.0/2025,2000,g  9.8,6.0
# From MPEC 2023-VM5
72P/Denning-Fujikawa,e,10.9451,26.7160,346.7444,4.307660,0.1102407,0.81839871,70.3737,03/15.0/2025,2000,g 17.5,10.0
# From MPEC 2023-RF3
73P/Schwassmann-Wachmann,e,9.8873,67.3591,200.5007,3.027497,0.1871020,0.71899422,171.2180,03/15.0/2025,2000,g 11.5,6.0
# From NK 1613
73P-B/Schwassmann-Wachmann B,e,10.7944,195.1771,73.2502,3.072878,0.1829726,0.69633430,168.9526,03/15.0/2025,2000,g  9.0,4.0
# From NK 2710
73P-C/Schwassmann-Wachmann,e,10.8063,195.3559,73.1077,3.071631,0.1830841,0.69604201,169.8025,03/15.0/2025,2000,g  9.0,4.0
# From NK 934
73P-E/Schwassmann-Wachmann,e,10.7633,194.8468,73.5469,3.076537,0.1826463,0.69688278,167.0418,03/15.0/2025,2000,g  9.0,4.0
# From MPC 56796
73P-G/Schwassmann-Wachmann,e,11.388,69.909,198.772,3.06230,0.183922,0.6933024,359.982,06/08.0/2006,2000,g  9.0,4.0
# From MPC 56796
73P-H/Schwassmann-Wachmann,e,11.389,69.903,198.778,3.06223,0.183927,0.6933024,359.948,06/08.0/2006,2000,g  9.0,4.0
# From MPC 56796
73P-J/Schwassmann-Wachmann,e,11.386,69.983,198.673,3.06380,0.183786,0.6933024,359.974,06/08.0/2006,2000,g  9.0,4.0
# From MPC 56797
73P-K/Schwassmann-Wachmann,e,11.390,69.881,198.809,3.06176,0.183970,0.6933024,359.959,06/08.0/2006,2000,g  9.0,4.0
# From MPC 56797
73P-L/Schwassmann-Wachmann,e,11.388,69.911,198.772,3.06211,0.183938,0.6933024,359.937,06/08.0/2006,2000,g  9.0,4.0
# From MPC 56797
73P-M/Schwassmann-Wachmann,e,11.389,69.895,198.787,3.06205,0.183944,0.6933024,359.952,06/08.0/2006,2000,g  9.0,4.0
# From MPC 56797
73P-N/Schwassmann-Wachmann,e,11.389,69.909,198.754,3.06231,0.183921,0.6933024,359.952,06/08.0/2006,2000,g  9.0,4.0
# From MPC 56797
73P-P/Schwassmann-Wachmann,e,11.390,69.900,198.783,3.06222,0.183929,0.6933024,359.839,06/07.0/2006,2000,g  9.0,4.0
# From MPC 56797
73P-Q/Schwassmann-Wachmann,e,11.387,69.944,198.717,3.06298,0.183860,0.6933024,359.867,06/07.0/2006,2000,g  9.0,4.0
# From MPC 56797
73P-R/Schwassmann-Wachmann,e,11.388,69.904,198.776,3.06224,0.183927,0.6933024,359.966,06/08.0/2006,2000,g  9.0,4.0
# From MPC 56797
73P-S/Schwassmann-Wachmann,e,11.127,77.364,188.229,3.22719,0.170007,0.6933024,359.883,06/08.0/2006,2000,g  9.0,4.0
# From MPEC 2023-J29
73P-T/Schwassmann-Wachmann,e,9.9361,67.4343,200.4359,3.027050,0.1871435,0.71853486,171.4908,03/15.0/2025,2000,g  9.0,4.0
# From MPC 56797
73P-U/Schwassmann-Wachmann,e,11.384,69.994,198.659,3.06366,0.183799,0.6933024,359.997,06/09.0/2006,2000,g  9.0,4.0
# From MPC 56797
